[{"OBJECT_NAME":"STARLINK-2401","OBJECT_ID":"2021-018AH","EPOCH":"2026-03-09T22:10:26.160960","MEAN_MOTION":15.422267,"ECCENTRICITY":7.66e-5,"INCLINATION":53.0517,"RA_OF_ASC_NODE":251.5428,"ARG_OF_PERICENTER":114.0385,"MEAN_ANOMALY":246.0699,"EPHEMERIS_TYPE":0,"CLASSIFICATION_TYPE":"U","NORAD_CAT_ID":47818,"ELEMENT_SET_NO":999,"REV_AT_EPOCH":27661,"BSTAR":0.00076023,"MEAN_MOTION_DOT":0.00032889,"MEAN_MOTION_DDOT":0},{"OBJECT_NAME":"STARLINK-2402","OBJECT_ID":"2021-018AJ","EPOCH":"2026-03-10T11:03:34.002144","MEAN_MOTION":15.30188547,"ECCENTRICITY":0.000131,"INCLINATION":53.1616,"RA_OF_ASC_NODE":239.4875,"ARG_OF_PERICENTER":100.6423,"MEAN_ANOMALY":259.4725,"EPHEMERIS_TYPE":0,"CLASSIFICATION_TYPE":"U","NORAD_CAT_ID":47819,"ELEMENT_SET_NO":999,"REV_AT_EPOCH":27690,"BSTAR":4.8745e-5,"MEAN_MOTION_DOT":1.084e-5,"MEAN_MOTION_DDOT":0},{"OBJECT_NAME":"STARLINK-2406","OBJECT_ID":"2021-018AL","EPOCH":"2026-03-09T17:38:17.468160","MEAN_MOTION":15.30194477,"ECCENTRICITY":0.00011156,"INCLINATION":53.1598,"RA_OF_ASC_NODE":242.5448,"ARG_OF_PERICENTER":111.8067,"MEAN_ANOMALY":248.3053,"EPHEMERIS_TYPE":0,"CLASSIFICATION_TYPE":"U","NORAD_CAT_ID":47821,"ELEMENT_SET_NO":999,"REV_AT_EPOCH":27673,"BSTAR":-8.3276659e-5,"MEAN_MOTION_DOT":-2.824e-5,"MEAN_MOTION_DDOT":0},{"OBJECT_NAME":"STARLINK-2407","OBJECT_ID":"2021-018AM","EPOCH":"2026-03-10T12:32:13.117920","MEAN_MOTION":15.30194941,"ECCENTRICITY":0.0001234,"INCLINATION":53.1607,"RA_OF_ASC_NODE":251.422,"ARG_OF_PERICENTER":91.3109,"MEAN_ANOMALY":268.8033,"EPHEMERIS_TYPE":0,"CLASSIFICATION_TYPE":"U","NORAD_CAT_ID":47822,"ELEMENT_SET_NO":999,"REV_AT_EPOCH":27668,"BSTAR":6.0005e-5,"MEAN_MOTION_DOT":1.418e-5,"MEAN_MOTION_DDOT":0},{"OBJECT_NAME":"STARLINK-2408","OBJECT_ID":"2021-018AN","EPOCH":"2026-03-10T12:42:02.027232","MEAN_MOTION":15.06393719,"ECCENTRICITY":0.0001381,"INCLINATION":53.0558,"RA_OF_ASC_NODE":247.8325,"ARG_OF_PERICENTER":101.2281,"MEAN_ANOMALY":258.8863,"EPHEMERIS_TYPE":0,"CLASSIFICATION_TYPE":"U","NORAD_CAT_ID":47823,"ELEMENT_SET_NO":999,"REV_AT_EPOCH":27672,"BSTAR":-1.5726e-5,"MEAN_MOTION_DOT":-5.16e-6,"MEAN_MOTION_DDOT":0},{"OBJECT_NAME":"STARLINK-2409","OBJECT_ID":"2021-018AP","EPOCH":"2026-03-10T10:51:56.339424","MEAN_MOTION":15.06394426,"ECCENTRICITY":0.0001213,"INCLINATION":53.0559,"RA_OF_ASC_NODE":248.1931,"ARG_OF_PERICENTER":88.6083,"MEAN_ANOMALY":271.5045,"EPHEMERIS_TYPE":0,"CLASSIFICATION_TYPE":"U","NORAD_CAT_ID":47824,"ELEMENT_SET_NO":999,"REV_AT_EPOCH":27670,"BSTAR":4.2596e-5,"MEAN_MOTION_DOT":3.53e-6,"MEAN_MOTION_DDOT":0},{"OBJECT_NAME":"STARLINK-2410","OBJECT_ID":"2021-018AQ","EPOCH":"2026-03-10T11:55:05.727648","MEAN_MOTION":15.30203319,"ECCENTRICITY":0.0002377,"INCLINATION":53.1587,"RA_OF_ASC_NODE":239.0971,"ARG_OF_PERICENTER":85.2094,"MEAN_ANOMALY":274.9178,"EPHEMERIS_TYPE":0,"CLASSIFICATION_TYPE":"U","NORAD_CAT_ID":47825,"ELEMENT_SET_NO":999,"REV_AT_EPOCH":27685,"BSTAR":0.00016042,"MEAN_MOTION_DOT":4.395e-5,"MEAN_MOTION_DDOT":0},{"OBJECT_NAME":"STARLINK-2411","OBJECT_ID":"2021-018AR","EPOCH":"2026-03-10T12:17:06.516672","MEAN_MOTION":15.30190085,"ECCENTRICITY":0.0001154,"INCLINATION":53.1585,"RA_OF_ASC_NODE":241.1754,"ARG_OF_PERICENTER":91.9221,"MEAN_ANOMALY":268.1912,"EPHEMERIS_TYPE":0,"CLASSIFICATION_TYPE":"U","NORAD_CAT_ID":47826,"ELEMENT_SET_NO":999,"REV_AT_EPOCH":27682,"BSTAR":0.00016866,"MEAN_MOTION_DOT":4.638e-5,"MEAN_MOTION_DDOT":0},{"OBJECT_NAME":"STARLINK-2413","OBJECT_ID":"2021-018AS","EPOCH":"2026-03-10T12:00:01.999296","MEAN_MOTION":15.16317778,"ECCENTRICITY":8.11e-5,"INCLINATION":53.0974,"RA_OF_ASC_NODE":237.9875,"ARG_OF_PERICENTER":102.3837,"MEAN_ANOMALY":297.5026,"EPHEMERIS_TYPE":0,"CLASSIFICATION_TYPE":"U","NORAD_CAT_ID":47827,"ELEMENT_SET_NO":999,"REV_AT_EPOCH":571,"BSTAR":0.05271,"MEAN_MOTION_DOT":0.01121587,"MEAN_MOTION_DDOT":0},{"OBJECT_NAME":"STARLINK-2415","OBJECT_ID":"2021-018AT","EPOCH":"2026-03-10T12:36:46.543680","MEAN_MOTION":15.30180111,"ECCENTRICITY":7.42e-5,"INCLINATION":53.1578,"RA_OF_ASC_NODE":251.4034,"ARG_OF_PERICENTER":64.8424,"MEAN_ANOMALY":295.2653,"EPHEMERIS_TYPE":0,"CLASSIFICATION_TYPE":"U","NORAD_CAT_ID":47828,"ELEMENT_SET_NO":999,"REV_AT_EPOCH":27668,"BSTAR":0.00047867,"MEAN_MOTION_DOT":0.00013835,"MEAN_MOTION_DDOT":0},{"OBJECT_NAME":"STARLINK-2419","OBJECT_ID":"2021-018AV","EPOCH":"2026-03-09T22:07:36.437664","MEAN_MOTION":15.30183402,"ECCENTRICITY":8.3e-5,"INCLINATION":53.1596,"RA_OF_ASC_NODE":254.5564,"ARG_OF_PERICENTER":53.0754,"MEAN_ANOMALY":307.0323,"EPHEMERIS_TYPE":0,"CLASSIFICATION_TYPE":"U","NORAD_CAT_ID":47830,"ELEMENT_SET_NO":999,"REV_AT_EPOCH":27657,"BSTAR":-0.0001687,"MEAN_MOTION_DOT":-5.349e-5,"MEAN_MOTION_DDOT":0},{"OBJECT_NAME":"STARLINK-2420","OBJECT_ID":"2021-018AW","EPOCH":"2026-03-10T11:12:29.277792","MEAN_MOTION":15.06404656,"ECCENTRICITY":0.0001325,"INCLINATION":53.0561,"RA_OF_ASC_NODE":233.1266,"ARG_OF_PERICENTER":106.6251,"MEAN_ANOMALY":253.4883,"EPHEMERIS_TYPE":0,"CLASSIFICATION_TYPE":"U","NORAD_CAT_ID":47831,"ELEMENT_SET_NO":999,"REV_AT_EPOCH":27697,"BSTAR":9.8313e-5,"MEAN_MOTION_DOT":1.183e-5,"MEAN_MOTION_DDOT":0},{"OBJECT_NAME":"STARLINK-2422","OBJECT_ID":"2021-018AX","EPOCH":"2026-03-09T17:37:40.218528","MEAN_MOTION":15.30204015,"ECCENTRICITY":0.00013942,"INCLINATION":53.1607,"RA_OF_ASC_NODE":245.2855,"ARG_OF_PERICENTER":83.7938,"MEAN_ANOMALY":276.3221,"EPHEMERIS_TYPE":0,"CLASSIFICATION_TYPE":"U","NORAD_CAT_ID":47832,"ELEMENT_SET_NO":999,"REV_AT_EPOCH":27669,"BSTAR":0.00015173019,"MEAN_MOTION_DOT":4.138e-5,"MEAN_MOTION_DDOT":0},{"OBJECT_NAME":"STARLINK-2423","OBJECT_ID":"2021-018AY","EPOCH":"2026-03-10T12:22:10.971264","MEAN_MOTION":15.06381181,"ECCENTRICITY":0.0001476,"INCLINATION":53.0552,"RA_OF_ASC_NODE":247.9066,"ARG_OF_PERICENTER":116.538,"MEAN_ANOMALY":243.576,"EPHEMERIS_TYPE":0,"CLASSIFICATION_TYPE":"U","NORAD_CAT_ID":47833,"ELEMENT_SET_NO":999,"REV_AT_EPOCH":27677,"BSTAR":0.00011283,"MEAN_MOTION_DOT":1.399e-5,"MEAN_MOTION_DDOT":0},{"OBJECT_NAME":"STARLINK-2424","OBJECT_ID":"2021-018AZ","EPOCH":"2026-03-09T17:23:54.809952","MEAN_MOTION":15.30202261,"ECCENTRICITY":0.0001251,"INCLINATION":53.1586,"RA_OF_ASC_NODE":244.8681,"ARG_OF_PERICENTER":87.0347,"MEAN_ANOMALY":273.0797,"EPHEMERIS_TYPE":0,"CLASSIFICATION_TYPE":"U","NORAD_CAT_ID":47834,"ELEMENT_SET_NO":999,"REV_AT_EPOCH":27675,"BSTAR":0.00013894922,"MEAN_MOTION_DOT":3.758e-5,"MEAN_MOTION_DDOT":0},{"OBJECT_NAME":"STARLINK-2426","OBJECT_ID":"2021-018BB","EPOCH":"2026-03-10T10:47:35.870208","MEAN_MOTION":15.30204171,"ECCENTRICITY":0.0002438,"INCLINATION":53.1592,"RA_OF_ASC_NODE":241.4696,"ARG_OF_PERICENTER":78.4716,"MEAN_ANOMALY":281.6559,"EPHEMERIS_TYPE":0,"CLASSIFICATION_TYPE":"U","NORAD_CAT_ID":47836,"ELEMENT_SET_NO":999,"REV_AT_EPOCH":27681,"BSTAR":0.00023192,"MEAN_MOTION_DOT":6.516e-5,"MEAN_MOTION_DDOT":0}]
