STARLINK-2401           
1 47818U 21018AH  26068.92391390  .00032889  00000+0  76023-3 0  9998
2 47818  53.0517 251.5428 0000766 114.0385 246.0699 15.42226700276616
STARLINK-2402           
1 47819U 21018AJ  26069.46081021  .00001084  00000+0  48745-4 0  9990
2 47819  53.1616 239.4875 0001310 100.6423 259.4725 15.30188547276902
STARLINK-2406           
1 47821U 21018AL  26068.73492440 -.00002824  00000+0 -83277-4 0  9997
2 47821  53.1598 242.5448 0001115 111.8067 248.3053 15.30194477276737
STARLINK-2407           
1 47822U 21018AM  26069.52237405  .00001418  00000+0  60005-4 0  9994
2 47822  53.1607 251.4220 0001234  91.3109 268.8033 15.30194941276682
STARLINK-2408           
1 47823U 21018AN  26069.52919013 -.00000516  00000+0 -15726-4 0  9997
2 47823  53.0558 247.8325 0001381 101.2281 258.8863 15.06393719276729
STARLINK-2409           
1 47824U 21018AP  26069.45273541  .00000353  00000+0  42596-4 0  9991
2 47824  53.0559 248.1931 0001213  88.6083 271.5045 15.06394426276708
STARLINK-2410           
1 47825U 21018AQ  26069.49659407  .00004395  00000+0  16042-3 0  9991
2 47825  53.1587 239.0971 0002377  85.2094 274.9178 15.30203319276858
STARLINK-2411           
1 47826U 21018AR  26069.51188098  .00004638  00000+0  16866-3 0  9992
2 47826  53.1585 241.1754 0001154  91.9221 268.1912 15.30190085276821
STARLINK-2413           
1 47827U 21018AS  26069.50002314  .01121587  00000+0  52710-1 0  9998
2 47827  53.0974 237.9875 0000811 102.3837 297.5026 15.16317778  5713
STARLINK-2415           
1 47828U 21018AT  26069.52553870  .00013835  00000+0  47867-3 0  9993
2 47828  53.1578 251.4034 0000742  64.8424 295.2653 15.30180111276682
STARLINK-2419           
1 47830U 21018AV  26068.92194951 -.00005349  00000+0 -16870-3 0  9993
2 47830  53.1596 254.5564 0000830  53.0754 307.0323 15.30183402276571
STARLINK-2420           
1 47831U 21018AW  26069.46700553  .00001183  00000+0  98313-4 0  9998
2 47831  53.0561 233.1266 0001325 106.6251 253.4883 15.06404656276971
STARLINK-2422           
1 47832U 21018AX  26068.73449327  .00004138  00000+0  15173-3 0  9992
2 47832  53.1607 245.2855 0001394  83.7938 276.3221 15.30204015276698
STARLINK-2423           
1 47833U 21018AY  26069.51540476  .00001399  00000+0  11283-3 0  9991
2 47833  53.0552 247.9066 0001476 116.5380 243.5760 15.06381181276773
STARLINK-2424           
1 47834U 21018AZ  26068.72493993  .00003758  00000+0  13895-3 0  9997
2 47834  53.1586 244.8681 0001251  87.0347 273.0797 15.30202261276751
STARLINK-2426           
1 47836U 21018BB  26069.44972072  .00006516  00000+0  23192-3 0  9995
2 47836  53.1592 241.4696 0002438  78.4716 281.6559 15.30204171276811
